NORAD_CAT_ID,OBJECT_NAME,OBJECT_TYPE,EPOCH,MEAN_MOTION,ECCENTRICITY,INCLINATION,RA_OF_ASC_NODE,ARG_OF_PERICENTER,MEAN_ANOMALY,BSTAR,MEAN_MOTION_DOT,MEAN_MOTION_DDOT,TLE_LINE0,TLE_LINE1,TLE_LINE2,SEMIMAJOR_AXIS,PERIOD,APOGEE,PERIGEE,DECAYED
53422.0,STARLINK-4546,PAYLOAD,2024-08-18 22:07:24,15.08852827,0.0001666,53.2158,142.9274,105.7968,254.3208,0.00038845,5.902e-05,0.0,0 STARLINK-4546,1 53422U 22097AL  24231.92181116  .00005902  00000-0  38845-3 0  9994,2 53422  53.2158 142.9274 0001666 105.7968 254.3208 15.08852827112932,6917.841,95.437,540.859,538.554,0.0
53422.0,STARLINK-4546,PAYLOAD,2024-08-18 23:42:47,15.08854951,0.0001693,53.2163,142.6301,106.7727,253.3451,0.0005673,8.756e-05,0.0,0 STARLINK-4546,1 53422U 22097AL  24231.98805121  .00008756  00000-0  56730-3 0  9992,2 53422  53.2163 142.6301 0001693 106.7727 253.3451 15.08854951112467,6917.835,95.437,540.871,538.529,0.0
53422.0,STARLINK-4546,PAYLOAD,2024-08-19 10:50:29,15.08844612,0.0001471,53.2156,140.5496,80.1891,279.9267,0.00024265,3.576e-05,0.0,0 STARLINK-4546,1 53422U 22097AL  24232.45173310  .00003576  00000-0  24265-3 0  9996,2 53422  53.2156 140.5496 0001471  80.1891 279.9267 15.08844612112532,6917.866,95.437,540.749,538.714,0.0
53422.0,STARLINK-4546,PAYLOAD,2024-08-20 02:44:21,15.08835302,0.0001674,53.2156,137.5783,93.1256,266.9927,-4.2052e-05,-9.57e-06,0.0,0 STARLINK-4546,1 53422U 22097AL  24233.11413895 -.00000957  00000-0 -42052-4 0  9992,2 53422  53.2156 137.5783 0001674  93.1256 266.9927 15.08835302112637,6917.895,95.438,540.918,538.602,0.0
53422.0,STARLINK-4546,PAYLOAD,2024-08-21 02:35:07,15.08853477,0.0001366,53.2155,133.1148,93.2679,266.847,0.0001968,2.847e-05,0.0,0 STARLINK-4546,1 53422U 22097AL  24234.10773047  .00002847  00000-0  19680-3 0  9998,2 53422  53.2155 133.1148 0001366  93.2679 266.8470 15.08853477112782,6917.839,95.437,540.649,538.759,0.0
53422.0,STARLINK-4546,PAYLOAD,2024-08-21 23:15:09,15.08837016,0.0001494,53.215,129.2483,127.0952,233.0177,4.7771e-05,4.72e-06,0.0,0 STARLINK-4546,1 53422U 22097AL  24234.96885924  .00000472  00000-0  47771-4 0  9995,2 53422  53.2150 129.2483 0001494 127.0952 233.0177 15.08837016112913,6917.89,95.438,540.788,538.721,0.0
